[
    {
        "Altitude(m)": 605459.021396343,
        "Argument of Periapsis(deg)": 0.0,
        "Eccentricity": 0.0,
        "Inclination(deg)": 60.0,
        "Latitude(deg)": 27.988189969455846,
        "Longitude(deg)": -17.20146872730822,
        "Mean Anomaly(deg)": 32.7273,
        "RAAN(deg)": 65.0,
        "Satellite Name": "Test1 288",
        "Satellite Number": 288,
        "Semi-Major Axis(m)": 6980739.136638005,
        "Time(s)": 0
    },
    {
        "Altitude(m)": 605535.812524525,
        "Argument of Periapsis(deg)": 0.00010418945913296404,
        "Eccentricity": 0.0,
        "Inclination(deg)": 60.0,
        "Latitude(deg)": 28.501320114318187,
        "Longitude(deg)": -16.844524891064296,
        "Mean Anomaly(deg)": 33.347406145461825,
        "RAAN(deg)": 64.99957995086025,
        "Satellite Name": "Test1 288",
        "Satellite Number": 288,
        "Semi-Major Axis(m)": 6980739.136638005,
        "Time(s)": 10
    }
]